ONEWEB-0027             
1 45432U 20020J   23250.40588310  .00000156  00000+0  36903-3 0  9998
2 45432  87.9134 207.3199 0002012  71.6564 288.4786 13.17650236172857
ONEWEB-0064             
1 45433U 20020K   23250.35368139 -.00000066  00000+0 -22200-3 0  9995
2 45433  87.8924 222.4543 0002226  75.9542 284.1833 13.11413553169805
ONEWEB-0018             
1 45434U 20020L   23250.38548362  .00000446  00000+0  12239-2 0  9997
2 45434  87.8927 222.4348 0002070  89.2193 270.9172 13.11415145169751
ONEWEB-0083             
1 45435U 20020M   23250.37489573  .00000622  00000+0  17201-2 0  9995
2 45435  87.8920 222.4252 0001940  81.6937 278.4411 13.11416206169798
ONEWEB-0095             
1 45436U 20020N   23250.37121170  .00000549  00000+0  15123-2 0  9991
2 45436  87.8929 222.4607 0001809  77.5480 282.5850 13.11415775169796
ONEWEB-0092             
1 45437U 20020P   23250.33248838 -.00000347  00000+0 -10162-2 0  9995
2 45437  87.8925 222.4453 0001745  78.6242 281.5082 13.11415201169902
ONEWEB-0085             
1 45438U 20020Q   23250.36853506  .00000477  00000+0  13101-2 0  9991
2 45438  87.8921 222.4486 0002202  85.0402 275.0977 13.11417413169799
ONEWEB-0096             
1 45439U 20020R   23250.37702654  .00000613  00000+0  16925-2 0  9999
2 45439  87.8921 222.4218 0002151  91.0751 269.0623 13.11415937169789
